{{Infobox planet
| width = 25em
| bgcolour = #FFFFC0 
| name = 1996 YD
| discovery = yes
| discovery_ref =
| discoverer = [[小林隆男|小林隆男]]
| discovery_site = [[大泉天文台|大泉天文台]]
| discovered = 1996年12月20日
| designations = yes
| mp_name = 12450
| alt_names =  1996 YD <br> 1984 HE2 <br> 1994 ET7 
| named_after = 
| mp_category = 
| epoch = [[Julian_day|JD]] 2456800.5 (2014-May-23.0)
| eccentricity = 0.08960934511115902
| semimajor  = 2.258991888165701 AU
| perihelion   = 2.056565104455752 AU
| inclination = 2.481184716758195°
| asc_node = 43.57037365363765°
| arg_peri = 87.4004705304162°
| mean_anomaly = 22.80538237033161[[角度|°]]
| period = 1240.139195724577 [[day|d]] (  3.40 [[Julian_year_(astronomy)|a]])
| aphelion = 2.461418671875649 [[天文单位|AU]]
| orbit_ref = <ref>[http://ssd.jpl.nasa.gov/sbdb.cgi?sstr=12450 JPL Small-Body Database Browser - 12450 (1996 YD)]</ref>
| avg_speed =
| satellites =
| physical_characteristics = 
| dimensions =
| mass =
| density =
| surface_grav =
| escape_velocity =
| sidereal_day =
| axial_tilt =
| pole_ecliptic_lat =
| pole_ecliptic_lon =
| albedo =
| rotation=
| temperatures=
| temp_name1 =
| mean_temp_1 =
| max_temp_1 =
| temp_name2 =
| max_temp_2 =
| spectral_type =
| abs_magnitude = 14.1
}}
'''小行星12450'''是一颗主带小行星，是[[小林隆男|小林隆男]]于1996年12月20日在[[大泉天文台|大泉天文台]]发现的。
== 参见 ==
* [[小行星列表/12401-12500|小行星列表/12401-12500]]
== 外部链接 ==
* [http://cfa-www.harvard.edu/iau/lists/NumberedMPs.txt Discovery Circumstances: Numbered Minor Planets] {{Wayback|url=http://cfa-www.harvard.edu/iau/lists/NumberedMPs.txt |date=20080517010638 }}
* [http://ssd.jpl.nasa.gov/sbdb.cgi?sstr=12450 JPL Small-Body Database Browser - 12450 (1996 YD)] {{Wayback|url=http://ssd.jpl.nasa.gov/sbdb.cgi?sstr=12450 |date=20210717101039 }}

== 参考 ==
{{Reflist}}
{{Minor Planet Number|[[小行星12449|12449(1996 XL<sub>31</sub>)]]|[[小行星12451|12451(1996 YF)]]}}

[[Category:1996年发现的小行星|Category:1996年发现的小行星]]
[[Category:小行星带天体|Category:小行星带天体]]

{{Beltasteroid-stub}}